NORAD_CAT_ID,OBJECT_NAME,OBJECT_TYPE,EPOCH,MEAN_MOTION,ECCENTRICITY,INCLINATION,RA_OF_ASC_NODE,ARG_OF_PERICENTER,MEAN_ANOMALY,BSTAR,MEAN_MOTION_DOT,MEAN_MOTION_DDOT,TLE_LINE0,TLE_LINE1,TLE_LINE2,SEMIMAJOR_AXIS,PERIOD,APOGEE,PERIGEE,DECAYED
53863.0,STARLINK-4788,PAYLOAD,2024-01-10 23:37:40,15.08840046,0.0001425,53.2149,224.7944,101.5138,258.6014,6.8231e-06,-1.79e-06,0.0,0 STARLINK-4788,1 53863U 22114AX  24010.98450167 -.00000179  00000-0  68231-5 0  9995,2 53863  53.2149 224.7944 0001425 101.5138 258.6014 15.08840046 74041,6917.88,95.438,540.731,538.759,0.0
53863.0,STARLINK-4788,PAYLOAD,2024-01-11 20:17:40,15.08848843,0.0001398,53.2148,220.9285,100.9813,259.1337,7.2901e-05,8.73e-06,0.0,0 STARLINK-4788,1 53863U 22114AX  24011.84561239  .00000873  00000-0  72901-4 0  9992,2 53863  53.2148 220.9285 0001398 100.9813 259.1337 15.08848843 73639,6917.853,95.437,540.685,538.751,0.0
53863.0,STARLINK-4788,PAYLOAD,2024-01-12 20:08:28,15.08838202,0.0001717,53.2159,216.47,57.5961,302.5197,1.068e-05,-1.18e-06,0.0,0 STARLINK-4788,1 53863U 22114AX  24012.83922429 -.00000118  00000-0  10680-4 0  9993,2 53863  53.2159 216.4700 0001717  57.5961 302.5197 15.08838202 73780,6917.886,95.438,540.939,538.563,0.0
53863.0,STARLINK-4788,PAYLOAD,2024-01-12 23:19:15,15.08838675,0.0001511,53.2162,215.8739,66.9259,293.1893,1.7405e-05,-1.1e-07,0.0,0 STARLINK-4788,1 53863U 22114AX  24012.97170279 -.00000011  00000-0  17405-4 0  9990,2 53863  53.2162 215.8739 0001511  66.9259 293.1893 15.08838675 74340,6917.884,95.438,540.795,538.704,0.0
53863.0,STARLINK-4788,PAYLOAD,2024-01-14 11:53:07,15.08834893,0.0001334,53.215,209.0342,85.8916,274.2228,5.7555e-05,6.28e-06,0.0,0 STARLINK-4788,1 53863U 22114AX  24014.49522449  .00000628  00000-0  57555-4 0  9992,2 53863  53.2150 209.0342 0001334  85.8916 274.2228 15.08834893 74031,6917.896,95.438,540.684,538.838,0.0
53863.0,STARLINK-4788,PAYLOAD,2024-01-14 18:14:39,15.08835261,0.0001286,53.2152,207.8444,89.5859,270.528,5.7894e-05,6.34e-06,0.0,0 STARLINK-4788,1 53863U 22114AX  24014.76018507  .00000634  00000-0  57894-4 0  9990,2 53863  53.2152 207.8444 0001286  89.5859 270.5280 15.08835261 74616,6917.895,95.438,540.65,538.87,0.0
53863.0,STARLINK-4788,PAYLOAD,2024-01-15 18:05:26,15.08839217,0.0001242,53.2149,203.3837,91.5533,268.5601,6.2334e-05,7.04e-06,0.0,0 STARLINK-4788,1 53863U 22114AX  24015.75378441  .00000704  00000-0  62334-4 0  9999,2 53863  53.2149 203.3837 0001242  91.5533 268.5601 15.08839217 74229,6917.883,95.438,540.607,538.889,0.0
53863.0,STARLINK-4788,PAYLOAD,2024-01-16 00:26:57,15.08860291,0.0001305,53.2149,202.1951,80.3632,279.7507,0.0002281,3.346e-05,0.0,0 STARLINK-4788,1 53863U 22114AX  24016.01872550  .00003346  00000-0  22810-3 0  9998,2 53863  53.2149 202.1951 0001305  80.3632 279.7507 15.08860291 74268,6917.818,95.436,540.586,538.781,0.0
53863.0,STARLINK-4788,PAYLOAD,2024-01-16 11:34:42,15.08831905,0.0001262,53.2154,200.1126,77.5656,282.5477,-1.138e-05,-4.69e-06,0.0,0 STARLINK-4788,1 53863U 22114AX  24016.48243137 -.00000469  00000-0 -11380-4 0  9998,2 53863  53.2154 200.1126 0001262  77.5656 282.5477 15.08831905 74338,6917.905,95.438,540.643,538.897,0.0
53863.0,STARLINK-4788,PAYLOAD,2024-01-16 19:31:37,15.08835899,0.0001288,53.215,198.6267,80.7719,279.3419,3.4943e-05,2.68e-06,0.0,0 STARLINK-4788,1 53863U 22114AX  24016.81362819  .00000268  00000-0  34943-4 0  9999,2 53863  53.2150 198.6267 0001288  80.7719 279.3419 15.08835899 74926,6917.893,95.438,540.649,538.867,0.0
53863.0,STARLINK-4788,PAYLOAD,2024-01-16 22:42:23,15.08839887,0.0001279,53.2152,198.0314,85.5631,274.5507,5.8241e-05,6.39e-06,0.0,0 STARLINK-4788,1 53863U 22114AX  24016.94610484  .00000639  00000-0  58241-4 0  9996,2 53863  53.2152 198.0314 0001279  85.5631 274.5507 15.08839887 74400,6917.881,95.438,540.631,538.861,0.0
53863.0,STARLINK-4788,PAYLOAD,2024-01-17 19:22:24,15.08840299,0.0001259,53.2151,194.1648,92.1787,267.9349,6.2855e-05,7.13e-06,0.0,0 STARLINK-4788,1 53863U 22114AX  24017.80722586  .00000713  00000-0  62855-4 0  9998,2 53863  53.2151 194.1648 0001259  92.1787 267.9349 15.08840299 75073,6917.879,95.438,540.615,538.874,0.0
53863.0,STARLINK-4788,PAYLOAD,2024-01-18 11:16:15,15.08854518,0.0001417,53.2149,191.1912,87.8051,272.3104,-0.0001397,-2.512e-05,0.0,0 STARLINK-4788,1 53863U 22114AX  24018.46961926 -.00002512  00000-0 -13970-3 0  9998,2 53863  53.2149 191.1912 0001417  87.8051 272.3104 15.08854518 74631,6917.836,95.437,540.681,538.721,0.0
53863.0,STARLINK-4788,PAYLOAD,2024-01-18 17:37:47,15.08843582,0.0001284,53.215,190.0015,95.364,264.7498,0.00011332,1.516e-05,0.0,0 STARLINK-4788,1 53863U 22114AX  24018.73458234  .00001516  00000-0  11332-3 0  9992,2 53863  53.2150 190.0015 0001284  95.3640 264.7498 15.08843582 74679,6917.869,95.437,540.623,538.846,0.0
53863.0,STARLINK-4788,PAYLOAD,2024-01-19 11:07:03,15.08835725,0.0001246,53.2144,186.732,93.9847,266.1288,6.4021e-05,7.31e-06,0.0,0 STARLINK-4788,1 53863U 22114AX  24019.46323005  .00000731  00000-0  64021-4 0  9992,2 53863  53.2144 186.7320 0001246  93.9847 266.1288 15.08835725 74789,6917.893,95.438,540.62,538.896,0.0
53863.0,STARLINK-4788,PAYLOAD,2024-01-19 14:17:49,15.08835052,0.0001316,53.2148,186.137,83.5704,276.5438,2.1881e-05,6e-07,0.0,0 STARLINK-4788,1 53863U 22114AX  24019.59571222  .00000060  00000-0  21881-4 0  9994,2 53863  53.2148 186.1370 0001316  83.5704 276.5438 15.08835052 75345,6917.896,95.438,540.671,538.85,0.0
53863.0,STARLINK-4788,PAYLOAD,2024-01-19 17:28:35,15.0883533,0.0001339,53.215,185.5424,79.7699,280.3444,1.9234e-05,1.8e-07,0.0,0 STARLINK-4788,1 53863U 22114AX  24019.72819231  .00000018  00000-0  19234-4 0  9996,2 53863  53.2150 185.5424 0001339  79.7699 280.3444 15.08835330 75367,6917.895,95.438,540.686,538.833,0.0
53863.0,STARLINK-4788,PAYLOAD,2024-01-20 14:08:36,15.08841753,0.0001318,53.215,181.6768,74.404,285.7098,6.1493e-05,6.91e-06,0.0,0 STARLINK-4788,1 53863U 22114AX  24020.58930797  .00000691  00000-0  61493-4 0  9994,2 53863  53.2150 181.6768 0001318  74.4040 285.7098 15.08841753 75498,6917.875,95.437,540.652,538.828,0.0
53863.0,STARLINK-4788,PAYLOAD,2024-01-20 17:19:22,15.08854158,0.0001396,53.216,181.0808,86.3196,273.7956,-5.7661e-05,-1.206e-05,0.0,0 STARLINK-4788,1 53863U 22114AX  24020.72178287 -.00001206  00000-0 -57661-4 0  9995,2 53863  53.2160 181.0808 0001396  86.3196 273.7956 15.08854158 74973,6917.837,95.437,540.668,538.736,0.0
53863.0,STARLINK-4788,PAYLOAD,2024-01-20 20:30:08,15.08846921,0.000133,53.2153,180.4867,76.3689,283.7452,9.421e-05,1.212e-05,0.0,0 STARLINK-4788,1 53863U 22114AX  24020.85426310  .00001212  00000-0  94210-4 0  9998,2 53863  53.2153 180.4867 0001330  76.3689 283.7452 15.08846921 75531,6917.859,95.437,540.644,538.804,0.0
53863.0,STARLINK-4788,PAYLOAD,2024-01-21 10:48:36,15.08839903,0.0001411,53.217,177.8082,103.0149,257.1,7.0073e-05,8.27e-06,0.0,0 STARLINK-4788,1 53863U 22114AX  24021.45042806  .00000827  00000-0  70073-4 0  9991,2 53863  53.2170 177.8082 0001411 103.0149 257.1000 15.08839903 75084,6917.881,95.438,540.722,538.77,0.0
53863.0,STARLINK-4788,PAYLOAD,2024-01-21 20:20:55,15.08846238,0.0001346,53.2167,176.0231,106.4401,253.6739,0.00011231,1.5e-05,0.0,0 STARLINK-4788,1 53863U 22114AX  24021.84786157  .00001500  00000-0  11231-3 0  9997,2 53863  53.2167 176.0231 0001346 106.4401 253.6739 15.08846238 75687,6917.861,95.437,540.657,538.795,0.0
53863.0,STARLINK-4788,PAYLOAD,2024-01-22 10:39:24,15.08837574,0.0001531,53.2172,173.3479,107.8536,252.2623,-4.6613e-06,-3.62e-06,0.0,0 STARLINK-4788,1 53863U 22114AX  24022.44403197 -.00000362  00000-0 -46613-5 0  9995,2 53863  53.2172 173.3479 0001531 107.8536 252.2623 15.08837574 75238,6917.888,95.438,540.812,538.694,0.0
53863.0,STARLINK-4788,PAYLOAD,2024-01-22 17:00:56,15.08841016,0.0001487,53.2169,172.1585,105.02,255.0957,1.8994e-05,1.4e-07,0.0,0 STARLINK-4788,1 53863U 22114AX  24022.70898912  .00000014  00000-0  18994-4 0  9999,2 53863  53.2169 172.1585 0001487 105.0200 255.0957 15.08841016 75818,6917.877,95.437,540.771,538.714,0.0
53863.0,STARLINK-4788,PAYLOAD,2024-01-23 15:16:20,15.08846141,0.00014,53.2165,167.9959,102.4088,257.7061,5.3343e-05,5.61e-06,0.0,0 STARLINK-4788,1 53863U 22114AX  24023.63634564  .00000561  00000-0  53343-4 0  9997,2 53863  53.2165 167.9959 0001400 102.4088 257.7061 15.08846141 75416,6917.862,95.437,540.695,538.758,0.0
53863.0,STARLINK-4788,PAYLOAD,2024-01-23 16:51:43,15.08846637,0.0001302,53.2168,167.7002,91.1141,269.0,7.9742e-05,9.82e-06,0.0,0 STARLINK-4788,1 53863U 22114AX  24023.70258458  .00000982  00000-0  79742-4 0  9997,2 53863  53.2168 167.7002 0001302  91.1141 269.0000 15.08846637 75960,6917.86,95.437,540.626,538.824,0.0
53863.0,STARLINK-4788,PAYLOAD,2024-01-24 13:31:45,15.08831904,0.0001749,53.2172,163.8389,62.7872,297.3298,6.6138e-05,7.64e-06,0.0,0 STARLINK-4788,1 53863U 22114AX  24024.56372051  .00000764  00000-0  66138-4 0  9991,2 53863  53.2172 163.8389 0001749  62.7872 297.3298 15.08831904 76099,6917.905,95.438,540.98,538.56,0.0
53863.0,STARLINK-4788,PAYLOAD,2024-01-24 15:07:08,15.08831605,0.000171,53.2172,163.5418,64.2905,295.8264,5.7661e-05,6.3e-06,0.0,0 STARLINK-4788,1 53863U 22114AX  24024.62996087  .00000630  00000-0  57661-4 0  9992,2 53863  53.2172 163.5418 0001710  64.2905 295.8264 15.08831605 75566,6917.906,95.438,540.954,538.588,0.0
53863.0,STARLINK-4788,PAYLOAD,2024-01-25 13:22:32,15.08839736,0.0001863,53.2172,159.3788,54.7831,305.3336,-3.1247e-05,-7.85e-06,0.0,0 STARLINK-4788,1 53863U 22114AX  24025.55732222 -.00000785  00000-0 -31247-4 0  9999,2 53863  53.2172 159.3788 0001863  54.7831 305.3336 15.08839736 76246,6917.881,95.438,541.035,538.457,0.0
53863.0,STARLINK-4788,PAYLOAD,2024-01-25 16:33:19,15.08807418,0.0002102,53.2175,158.7826,56.5823,303.537,0.00049343,7.567e-05,0.0,0 STARLINK-4788,1 53863U 22114AX  24025.68980734  .00007567  00000-0  49343-3 0  9994,2 53863  53.2175 158.7826 0002102  56.5823 303.5370 15.08807418 75725,6917.98,95.44,541.299,538.391,0.0
